id,name,email,street,zip_code,country
094173b29a80ff205a8db4030c753df6,Rasheeda Marvin Esq.,jacqulyn.shields@lang-wehner.test,29664 Rex Shores,Dahliatown,52664-8684
6408119a0f0fc6ca51d747a116af394b,Argentina Hartmann,darwin_koss@leannon.test,5316 Fahey Tunnel,Lynchshire,92952
4ac7a8f344b5d5e0b0701df75484351a,Bradford Boyer Sr.,myrta@jast.example,53203 McKenzie Square,Toniafort,77946
aaba5c5c1ccbcaefa21e766cdddd381a,Brice Greenfelder,leann_mante@koelpin-lubowitz.example,7395 Little Cliff,West Jacintoburgh,33751
b1047b4333678a653b5d8945ca9be75f,Ima Schiller,oliver_stanton@haley.test,9236 Gulgowski Plain,New Brittmouth,67497-5023
bf02dc9d8a9307232aba345e134c280f,Brandon Effertz,wen@hahn-ondricka.example,2718 Braun Tunnel,Clarkfurt,90328-2782
b74e9a38c58839abe609e5018c997525,Malka Welch,rosalva_botsford@heaney-ledner.test,11525 Kary Green,Kevinshire,87981
0801ee4c770f2d15a6150a15f86ea26e,Trudi White,hattie.mohr@rempel-murazik.test,8159 Hermann Stravenue,North Jean,99431-5499
52bda116cedd49f9a1bcbfdbdeb614de,Sharolyn Collins Esq.,gay@lemke.example,7693 Leffler Village,Elysestad,30802
d5cf78257601bbd164ab436a1cea9457,Jacquetta Skiles,camie_heller@toy-rau.test,14133 Diedre Ranch,Yundtberg,42815-9568
44cf5e820aabddd5da78376e5fb4e310,Gerry Lockman,rafael_altenwerth@lesch.test,1993 Aufderhar Plaza,Arlenaborough,34478-0073
fe37faea0d96cf4158ca778216f76ae3,Marylynn Koss,kelsie@murray.example,60671 Larry Grove,Port Obdulia,01133-8053
77a58e187ee01f357f4643b6c0b183ca,Keenan Stracke V,scotty_bashirian@volkman-lang.test,234 Merrie Estates,Missyside,19332-5730
5968e23a03a681b9c285d3759c1b666d,Bella Gerlach VM,sumiko@klein-borer.test,9668 Andreas Land,East Ozziestad,05578
171fc16cfc53d11b74b0cca4e053fca8,Gov. Claud Rath,kim.reilly@stark-bins.example,9361 Collin Trafficway,Schmidttown,47947
4e6450e6b7cd510fd9e5ca3d7d64d0f9,Miss Olive Schumm,nathanael.nader@wolff-nader.example,9706 Rachell Ports,East Cordellburgh,48669-9595
a1010fa53f65e3169a373f9c6e638ade,Nichole Kling,meta@douglas.test,82515 Grimes Centers,North Georgianneton,86075
c60eff61fbb0d1ead1625598d9e68b54,Lucia Heathcote,pete@carter-padberg.example,4855 Hagenes Harbor,Juanaberg,80053
8dacfdc9c2855563cfe36396f49d075d,Ted Nicolas,kourtney.langworth@lehner-fahey.test,64101 Moen Turnpike,North Carinafort,96388-2737
4d148fe4605c2dfbb715730d4bd72cc9,Ashley McDermott,olen@williamson.test,6874 Corwin Bypass,Port Phylicia,96149-2725
6dc359da507ce527e9f7274d4b1ec031,Kip Rempel,tisha.mills@bartell.test,637 Napoleon Drives,Daysiport,78941
d1b949b500da8b701099f7d358eb0206,Ryan King II,elvin_brakus@pfeffer.example,446 Rolfson Shore,New Mitchell,66797-8605
8aa2d8e2678acf08e3157b4ac78ba508,Yasmin Koepp I,natalie@schulist.example,1658 Pennie Mills,Port Abbey,82023
ecc31638e0d2ce25259a7e75d64fdb6f,Dallas Jaskolski,ernie@ohara.example,7919 Yetta Plaza,Danyellburgh,87782
aa1e19d0c943da619537539cc4573543,Rudolf Hessel CPA,bobbie.harber@borer.example,32872 Gleichner Burgs,Chaseshire,46387
dd407a28470890ba447e99c3e5b4de74,Cory Steuber III,may@cruickshank-bergstrom.example,73316 Louise Freeway,Porfiriofurt,00088
386712e66cbbc338ef30c44c90c559a6,Julienne Konopelski,bert.gislason@mraz.test,50782 Hammes Flats,Ilenefort,98028-3232
5ce0d64215dda2e50827f60342654eb0,Msgr. Brenton Ebert,georgeanna@lesch-connelly.example,1972 Rogelio Bypass,Alecmouth,05683-2188
a2c181d2361e8ad830bfc921ac096256,Jolyn Morissette,isabel.considine@kutch.example,62024 Elden Hollow,Darechester,61476
68975ef4f37c990c3caa38cebd03854a,Miss Joe Robel,sydney.monahan@dietrich-kunde.test,1017 Keeling Plains,North Ricoburgh,21298-6924
796944fac30f0ea0d0dc6383cffbaed5,Adalberto Blanda,mitchell_dooley@beier.test,2704 Trantow Extensions,South Inge,08586-9740
81b75129a98f06858fb292af0817682c,Janita Brekke,becki_hackett@klein-mcglynn.test,4216 Grant Ramp,North Christopher,88528
dce04195e7088b43eb9a3dba804f069a,Mechelle Funk,bennett@howell.test,7013 Stanton Cliffs,Hillsmouth,87862-1875
e03a5dfce1b6aed4856cd0067f7f142d,Sen. Alonso Stroman,melvin@batz.example,86322 Louie Glens,O'Haratown,38278
262f6abe1d7c435c597642bedd4485c3,Jenniffer Schaden,luigi@fisher.test,413 Kerluke Manor,Claudport,07908
61bed3f816d9a4d1c7ec7c3592fda1d2,Marquita Treutel,lupita_howell@oreilly.example,245 Ester Cape,Lake Koryview,52004-3623
1fc3b81773ddc32c823e3c15c97d202f,Salina O'Connell,ronny_olson@homenick-senger.test,565 Charolette Highway,Port Kristinton,67023-3950
12bce219ba143f508905adec57b8e52b,Rev. Winifred McClure,shirlene@abernathy-grady.test,20448 Hollis Dam,Port Sanfordmouth,12464
8b825854b0a0635fac2036e20f425745,Prof. Arthur Weissnat,chance@maggio-goodwin.test,16651 Isiah Islands,Rempelburgh,41208
cc6a19718faa3d34d68b224e62077c3c,Msgr. Gabrielle Stanton,rufus.lebsack@funk.example,9988 Denny Cliff,South Florettaport,69607
e13e01a25b586fcfdf3fed8a5c620677,Rivka Jacobson,carlena@cartwright-schaefer.example,211 Homer River,Schultzborough,47618-3566
da38c073865cea4065706e381ad1abbc,Emil Schuster,mathilda@jones-gerhold.test,99310 Kenisha Path,North Dionville,36219
878e44f563a67faa76fe7308bc347ce3,Augustus Marks,man@lindgren-spencer.example,71748 Rodriguez Manor,North Rebbeca,11719
e50ac3efbc1ad4a3b502b5aff317efe0,Rep. Ted Roberts,moses@murphy-toy.example,285 Dino Court,Casperberg,31584-2533
ca5455eae1d6c8eee8a2eac5fee1c394,Gilbert Cassin,sol@becker.example,221 Tennille Lane,Port Nobleshire,58947
bf8394663f0ae1a0a4908411654836a6,Edwin Wehner,rayford@kuphal.test,316 Dorothy Streets,Lake Sharilynberg,44386
cc67a20f4b4db099cd9981c926625c54,Kerry Reinger,lurline@sipes-jaskolski.test,501 Tashia Course,New Roland,06820-4598
46248ae5773b3b4bf13ca7766693808a,Ira Ebert,shella@sipes.example,18528 Etsuko Glen,Gerlachfurt,69906
03027891b41e76fe5e0b328cd6699ab9,Verda Reynolds,wilbur@rodriguez-senger.example,289 Leland Mills,Dillonchester,54950
26b5a5c5e4a019576df54e644f31924a,Colin Quitzon,george_hansen@marvin-bernier.example,83343 Farrell Valleys,Hyonfurt,79979-0585
c3d1be7b6d30429f3e35c13519fe88e0,Barton Price,truman_kohler@lind.test,139 Demetrius Locks,Weissnatmouth,68148
4d266296a04f94640f114ffad34efb7c,Richie Huels,myrle@donnelly-kirlin.test,7830 Alpha Burg,Danashire,28283
d6be874493505fcb838534e5d0db93d7,Wilbur Koss,rayna_ritchie@schneider-damore.example,98716 Halvorson Square,New Clarkton,68392-3074
ed41e3c4d29e736b614a066534fbc391,Jon Heidenreich,sherill@kuhn-monahan.example,968 Pfannerstill Station,New Santo,69065
109a6d038feb90f01e870b59de1f9651,Trey Morissette DDS,arlen.wilderman@jakubowski.test,9258 Adam Harbor,West Ronberg,22557-6321
8bc9840b250045cf6df5092bec8dbdac,Jorge Nicolas,romona.dicki@reichert.test,96321 Chery Via,West Merlin,84240
8f3d483f83a597be51f7709e3b83d9f1,Pres. Lyn Cruickshank,newton@blanda-becker.test,78890 Davis Keys,North Jeanetta,30309
bca68b9574be946326ca156e193a1524,Babara Klocko,elvin@mccullough-wehner.test,69196 Gerry View,North Christel,14625
f008b57b60fe7accea9d1dd5e02a78e7,Bryon Langosh,laraine@rice-harvey.example,536 Carter Underpass,Adriannachester,29644
71b021f8ccf70aa00fe9fff519b499ed,Miquel Towne,ahmad@waters-daniel.example,8049 Bosco Vista,Dwaynefurt,15751
7f3156f2269995f80a8c4bb1d9d47e6a,Gov. Raelene Doyle,luis_tremblay@breitenberg.test,54687 Conroy Ford,Okunevamouth,43358-5707
231668fb3c020b1da3f5df17e6e33411,Lindy Beer,hyacinth@flatley-ankunding.test,15301 Jonas Canyon,Ruebenland,61283
492577afa6925f1524fd9f764efdfa52,Gaynell Romaguera,georgetta@feest.test,3994 Tonja Mountain,East Waldoland,95578
1b37e00ce9a28165688691fbfc05543b,Mia Conroy,benito_jacobs@kunde.example,90522 Ralph Points,South Laci,22569-8720
8d6fe050667a846989cffc46d85d98d0,Nakisha Abernathy,tatiana@mayer.test,5361 Abbott Springs,Chonghaven,28051
9c093a4826670ea9478e3f4dce7b6d17,Pierre Morar,carmelo@brakus.example,358 Effertz Squares,East Efrainbury,61702-2138
3ff595b50b0ac9853669748335260dff,Edwin Rempel,elanor@feeney.test,1808 Rau Alley,East Hollisbury,88793-2123
cddc2fae52f4e9026eacd094bb25d9a2,Mrs. Carylon Kshlerin,barney@dare.test,26560 Laverne Viaduct,Beahanbury,74008-9150
ae887ae31fff85ac121623f5f2ac7d50,Mirella Koelpin,hayden@stroman-bernier.test,5928 Parisian Ville,North Seymour,21773
163cdfa3f7fb675de422d05e05508f79,Domingo Walker,margo_hane@lynch-pfannerstill.example,12586 Prohaska Springs,East Tianafort,24266-9141
f0b8b461bda6e11635dc49099815f4db,Madeleine Shanahan,mai.wyman@balistreri-rodriguez.example,6137 Heathcote Crescent,East Eulah,31567
a2d212841d57d6cd2f1b66de3bbb1c34,Lana Maggio,gwyn_terry@raynor-christiansen.test,281 Savanna Fall,Phuongtown,95540-4785
350b592e315f97e9c25aba24837760fe,Abraham Beer Sr.,rivka@runolfsdottir.test,9130 McClure Way,Adamstown,90696
d71a4c88914ff3718f66e3863325a9b7,Alan Ritchie,delois@treutel.test,69416 Nicky Pike,Jeramybury,14194
fb843808999b1bb136b83b997bbc2ec6,Drew Donnelly,yong_walter@daugherty-macejkovic.test,939 Elin Walks,South Heide,09327-0786
9c05ad6a10f9f230201498aab99a7487,Hugo Towne,yuko@cummings.example,7489 Tennie Knoll,Tannerbury,98083
76ae667189988d641a0abf6f2de59c8e,Mr. Callie Mills,marry@schultz.test,9800 Brenton Square,Latashaside,06181-8140
0c04ee23de4649ce6d2b13eb12d14de4,Mina Runte,carolin@harris.example,551 Deshawn Stravenue,Terryburgh,87233-1749
4ff124d785ab5316c1aafb357b5febe3,Dr. Saturnina Ryan,caleb_parisian@johns-bode.test,571 Schimmel Unions,West Lovieside,98137-1766
d05c1362fd187ffaf1b312d021d00dac,Mathew Tillman II,jesse_dibbert@labadie.test,7462 Abernathy Courts,East Lezliefort,34565-3060
358d4bd2545386ed0251323ff1e3eb7e,Blair Kiehn,rochelle@walker-baumbach.example,214 Dong Burg,West Maryellen,24916
717c7a16531060c492d96aa150267e66,Amb. Minh Gutkowski,lincoln_nikolaus@conn-sawayn.example,12201 Kuhn Ranch,Ryantown,69094
589e92f7cd5bfbbf77d1f0773d88a1bf,Elin Goyette,joetta.zulauf@russel.example,3599 Heathcote Mill,Cormierfurt,93266-7295
1b6b1e924bb78e87424e6fa83c06c602,Kate Rowe,shanelle_considine@hauck-luettgen.example,185 Beier Estate,Lake Harold,99069
f5e91730b3c30b6a4e2491fd79ebf746,Felipe Turner,loree_parisian@green-franecki.test,3808 Burton Trail,Tericahaven,61240-9711
a12f1f8b2e04064861e88d53d65debd3,Dusti Schroeder,nanette.bins@yost.example,519 Nicky Stravenue,New Litafurt,56182-0800
9346c6ab24ddec2d66c856cb34a9e3d2,Minnie Rowe,jeanetta_hoppe@hartmann.test,34758 Malinda Ports,North Ian,48846-5374
e538149a98dab75c0316d143ba69fba6,Otha White I,ronald@zemlak.example,937 Reuben Prairie,Koeppberg,81471-8322
11f9260c413dfcaed13b125d71296649,Yoko Sanford DC,nakia.cruickshank@bednar-kautzer.example,488 Jacqualine Heights,Wuckertside,02818-1655
a08569dabec7c3c03ae938e133d9db6e,Tracey Jacobson,bobbye_hagenes@jerde-herman.example,698 Lockman Heights,Huelsmouth,53009-4467
08c2a0866eb9ecad01005c0bb06292f3,Natashia Langosh,nickie@schroeder.example,73881 Imogene Causeway,East Blakestad,01964
ca1dc827a29fa4afb2baf71f4f861ed9,Deandra Schaefer,angella@hyatt.example,748 Larissa Alley,Lake Jacob,25227-6289
730d008a46f1aaf4bd0f8627af3ba87b,Amb. Marquis Ryan,loan@casper-lynch.example,6486 Ted Point,East Cortez,04699
9f3ba6bb42600fd15ad4445a3bc9e77e,Colby Aufderhar,curt@damore-quitzon.test,54199 Bryant Trace,Homenickborough,68413
b4fd8b937cdb0aa3c8c309b4cac6148f,Hedy Krajcik DO,cecil@price.test,9364 Maryjane Wall,Lake Audriahaven,00804-1249
3bfbbb4149b480752d76407299d4bcf3,Ollie Huel,eric_bernhard@wyman-lemke.test,6787 Evelin Cliff,Rorychester,79760-0116
b2093457182eb447cb50e5074dc91cbc,Carmel Brekke I,elvis.bayer@bogan.test,19761 Renay Orchard,Humbertoport,81454
198ff9eb74678d843274256b1a998f15,Ms. Johnathon Smitham,cheri@koelpin.example,296 Elwood Pine,Koeppberg,57517
8e72f44baf5ffd23237ee95268646280,Rep. Isaac Gibson,danial.bechtelar@schaefer.example,967 Simon Pines,West Renato,22030-2124
765af7bf30238326189e8c6dab74f706,Andrew Renner,nyla.littel@veum-adams.example,34396 Ratke Plaza,Hilarystad,08306-2913
